1 40534U 15013A   20229.62960735  .00000012  00000-0  00000-0 0  9992
2 40534  54.1808 292.3912 0047986   9.1187 351.0503  2.00564621 39096
1 40534U 15013A   20231.12533874  .00000013  00000-0  00000+0 0  9990
2 40534  54.1796 292.3295 0048013   9.0564 351.1159  2.00564519 39551
1 40534U 15013A   20232.12248922  .00000010  00000-0  00000-0 0  9996
2 40534  54.1788 292.2883 0048043   9.0261 351.1463  2.00564454 39142
1 40534U 15013A   20235.11393028 -.00000012  00000-0  00000+0 0  9998
2 40534  54.1766 292.1648 0048143   8.9673 351.1945  2.00564226 39638
1 40534U 15013A   20235.11393028 -.00000012  00000-0  00000-0 0  9999
2 40534  54.1766 292.1648 0048143   8.9673 351.1945  2.00564226 39638
1 40534U 15013A   20235.61250305 -.00000015  00000-0  00000-0 0  9997
2 40534  54.1762 292.1442 0048162   8.9562 351.2031  2.00564190 39215
1 40534U 15013A   20235.61250305 -.00000015  00000-0  00000-0 0  9997
2 40534  54.1762 292.1442 0048162   8.9562 351.2031  2.00564190 39642
1 40534U 15013A   20238.60394881 -.00000019  00000-0  00000-0 0  9991
2 40534  54.1741 292.0207 0048277   8.8768 351.2728  2.00564002 39703
1 40534U 15013A   20239.10252342 -.00000017  00000-0  00000-0 0  9990
2 40534  54.1737 292.0001 0048285   8.9348 351.2155  2.00564051 39713
1 40534U 15013A   20240.09967965 -.00000013  00000-0  00000-0 0  9990
2 40534  54.1730 291.9589 0048322   8.9028 351.2487  2.00563976 39300
1 40534U 15013A   20240.09967965 -.00000013  00000-0  00000-0 0  9990
2 40534  54.1730 291.9589 0048322   8.9028 351.2487  2.00563976 39737
1 40534U 15013A   20241.09683700 -.00000008  00000-0  00000-0 0  9997
2 40534  54.1723 291.9178 0048355   8.8869 351.2672  2.00563937 39756
1 40534U 15013A   20244.08830894 -.00000008  00000-0  00000+0 0  9996
2 40534  54.1702 291.7944 0048456   8.8568 351.3043  2.00563846 39819
1 40534U 15013A   20244.58688682 -.00000010  00000-0  00000-0 0  9991
2 40534  54.1698 291.7738 0048473   8.8584 351.3030  2.00563824 39396
1 40534U 15013A   20244.58688682 -.00000010  00000-0  00000-0 0  9991
2 40534  54.1698 291.7738 0048473   8.8584 351.3030  2.00563824 39824
1 40534U 15013A   20247.07976997 -.00000023  00000-0  00000+0 0  9990
2 40534  54.1681 291.6710 0048564   8.8379 351.3199  2.00563696 39876
1 40534U 15013A   20248.07692084 -.00000026  00000-0  00000-0 0  9997
2 40534  54.1675 291.6299 0048598   8.8324 351.3224  2.00563669 39899
1 40534U 15013A   20249.07407109 -.00000026  00000-0  00000-0 0  9990
2 40534  54.1667 291.5887 0048638   8.7882 351.3632  2.00563641 39911
1 40534U 15013A   20250.07122366 -.00000023  00000-0  00000-0 0  9998
2 40534  54.1660 291.5476 0048671   8.7750 351.3734  2.00563565 39502
1 40534U 15013A   20250.07122366 -.00000023  00000-0  00000-0 0  9998
2 40534  54.1660 291.5476 0048671   8.7750 351.3734  2.00563565 39939
1 40534U 15013A   20251.06837693 -.00000017  00000-0  00000-0 0  9997
2 40534  54.1653 291.5065 0048707   8.7680 351.3783  2.00563511 39527
1 40534U 15013A   20252.06553202 -.00000009  00000-0  00000-0 0  9990
2 40534  54.1646 291.4654 0048745   8.7535 351.3917  2.00563437 39978
1 40534U 15013A   20253.06268938  .00000000  00000-0  00000-0 0  9990
2 40534  54.1639 291.4242 0048792   8.7362 351.4091  2.00563357 39563
1 40534U 15013A   20253.56126878  .00000005  00000-0  00000-0 0  9996
2 40534  54.1636 291.4036 0048815   8.7318 351.4141  2.00563319 39573
1 40534U 15013A   20256.05416890  .00000024  00000-0  00000-0 0  9990
2 40534  54.1618 291.3008 0048927   8.7095 351.4421  2.00563169 40056
1 40534U 15013A   20257.05133253  .00000028  00000-0  00000-0 0  9994
2 40534  54.1611 291.2596 0048968   8.7065 351.4476  2.00563017 39647
1 40534U 15013A   20258.04849279  .00000029  00000-0  00000-0 0  9997
2 40534  54.1604 291.2184 0049014   8.6969 351.4586  2.00562950 40095
1 40534U 15013A   20259.04565036  .00000026  00000-0  00000-0 0  9991
2 40534  54.1597 291.1773 0049058   8.6812 351.4739  2.00562882 40111
1 40534U 15013A   20260.04280623  .00000020  00000-0  00000-0 0  9993
2 40534  54.1589 291.1360 0049116   8.6532 351.4995  2.00562778 39709
1 40534U 15013A   20260.04280623  .00000020  00000-0  00000-0 0  9993
2 40534  54.1589 291.1360 0049116   8.6532 351.4995  2.00562778 40138
1 40534U 15013A   20262.03711097  .00000004  00000-0  00000-0 0  9990
2 40534  54.1575 291.0536 0049232   8.6219 351.5206  2.00562625 39740
1 40534U 15013A   20263.03426214 -.00000004  00000-0  00000-0 0  9996
2 40534  54.1568 291.0125 0049238   8.6526 351.4840  2.00562609 40199
1 40534U 15013A   20264.52999261 -.00000009  00000-0  00000-0 0  9993
2 40534  54.1557 290.9507 0049326   8.6352 351.4933  2.00562470 39797
1 40534U 15013A   20266.02572762 -.00000008  00000-0  00000-0 0  9992
2 40534  54.1547 290.8889 0049389   8.6378 351.4868  2.00562431 40252
1 40534U 15013A   20267.02288867 -.00000005  00000-0  00000-0 0  9990
2 40534  54.1540 290.8477 0049438   8.6370 351.4874  2.00562381 39849
1 40534U 15013A   20268.02005244 -.00000001  00000-0  00000-0 0  9993
2 40534  54.1533 290.8065 0049503   8.6238 351.5018  2.00562307 39861
1 40534U 15013A   20269.01721619  .00000002  00000-0  00000-0 0  9994
2 40534  54.1526 290.7654 0049553   8.6161 351.5115  2.00562296 40313
1 40534U 15013A   20269.01721682  .00000002  00000-0  00000+0 0  9993
2 40534  54.1526 290.7654 0049538   8.6252 351.5024  2.00562282 40311
1 40534U 15013A   20271.01154339 -.00000001  00000-0  00000-0 0  9996
2 40534  54.1512 290.6831 0049631   8.6198 351.5105  2.00562265 40350
1 40534U 15013A   20271.01154372 -.00000001  00000-0  00000-0 0  9993
2 40534  54.1512 290.6831 0049652   8.6104 351.5198  2.00562239 39924
1 40534U 15013A   20272.50728669 -.00000009  00000-0  00000-0 0  9992
2 40534  54.1502 290.6214 0049708   8.6242 351.5051  2.00562184 39953
1 40534U 15013A   20273.00586678 -.00000013  00000-0  00000-0 0  9995
2 40534  54.1499 290.6008 0049734   8.6251 351.5031  2.00562156 40395
1 40534U 15013A   20273.50444578 -.00000016  00000-0  00000-0 0  9995
2 40534  54.1495 290.5802 0049763   8.6230 351.5039  2.00562145 39979
1 40534U 15013A   20274.00302517 -.00000019  00000-0  00000-0 0  9990
2 40534  54.1492 290.5597 0049782   8.6330 351.4924  2.00562135 39981
1 40534U 15013A   20275.00018345 -.00000024  00000-0  00000-0 0  9990
2 40534  54.1484 290.5186 0049829   8.6411 351.4807  2.00562090 40430
1 40534U 15013A   20275.99734253 -.00000026  00000-0  00000-0 0  9993
2 40534  54.1478 290.4775 0049873   8.6511 351.4669  2.00562015 40024
1 40534U 15013A   20276.99450050 -.00000025  00000-0  00000-0 0  9993
2 40534  54.1471 290.4364 0049915   8.6611 351.4533  2.00561994 40473
1 40534U 15013A   20277.99166102 -.00000021  00000-0  00000-0 0  9992
2 40534  54.1464 290.3953 0049969   8.6525 351.4588  2.00561900 40063
1 40534U 15013A   20277.99166102 -.00000021  00000-0  00000-0 0  9992
2 40534  54.1464 290.3953 0049969   8.6525 351.4588  2.00561900 40490
1 40534U 15013A   20278.98882274 -.00000014  00000-0  00000-0 0  9999
2 40534  54.1457 290.3542 0050033   8.6575 351.4519  2.00561822 40087
1 40534U 15013A   20279.98598562 -.00000006  00000-0  00000-0 0  9995
2 40534  54.1450 290.3131 0050088   8.6636 351.4452  2.00561780 40104
1 40534U 15013A   20281.48173436  .00000008  00000-0  00000+0 0  9992
2 40534  54.1439 290.2514 0050149   8.6864 351.4239  2.00561723 40566
1 40534U 15013A   20281.48173436  .00000008  00000-0  00000-0 0  9993
2 40534  54.1439 290.2514 0050149   8.6864 351.4239  2.00561723 40566
1 40534U 15013A   20281.98031938  .00000011  00000-0  00000-0 0  9992
2 40534  54.1435 290.2308 0050174   8.6900 351.4212  2.00561642 40147
1 40534U 15013A   20282.47890388  .00000015  00000-0  00000-0 0  9993
2 40534  54.1432 290.2102 0050212   8.6855 351.4268  2.00561578 40158
1 40534U 15013A   20282.47890388  .00000015  00000-0  00000-0 0  9993
2 40534  54.1432 290.2102 0050212   8.6855 351.4268  2.00561578 40585
1 40534U 15013A   20283.47607127  .00000020  00000-0  00000-0 0  9997
2 40534  54.1424 290.1691 0050268   8.6939 351.4208  2.00561553 40174
1 40534U 15013A   20285.96899278  .00000021  00000-0  00000+0 0  9993
2 40534  54.1406 290.0662 0050395   8.7249 351.3929  2.00561273 40658
1 40534U 15013A   20285.96899278  .00000021  00000-0  00000-0 0  9994
2 40534  54.1406 290.0662 0050395   8.7249 351.3929  2.00561273 40221
1 40534U 15013A   20286.96615811  .00000016  00000-0  00000-0 0  9998
2 40534  54.1398 290.0251 0050459   8.7213 351.3948  2.00561182 40676
1 40534U 15013A   20287.96331835  .00000008  00000-0  00000-0 0  9991
2 40534  54.1390 289.9839 0050520   8.7270 351.3854  2.00561163 40696
1 40534U 15013A   20290.45621849 -.00000013  00000-0  00000+0 0  9992
2 40534  54.1372 289.8810 0050652   8.7618 351.3362  2.00560980 40742
1 40534U 15013A   20290.45621849 -.00000013  00000-0  00000-0 0  9993
2 40534  54.1372 289.8810 0050652   8.7618 351.3362  2.00560980 40742
1 40534U 15013A   20292.45054136 -.00000019  00000-0  00000-0 0  9990
2 40534  54.1357 289.7986 0050790   8.7794 351.3094  2.00560873 40356
1 40534U 15013A   20292.45054136 -.00000019  00000-0  00000-0 0  9990
2 40534  54.1357 289.7986 0050790   8.7794 351.3094  2.00560873 40783
1 40534U 15013A   20293.94629333 -.00000017  00000-0  00000-0 0  9990
2 40534  54.1346 289.7369 0050860   8.8041 351.2830  2.00560767 40813
1 40534U 15013A   20296.93780951 -.00000011  00000-0  00000-0 0  9990
2 40534  54.1323 289.6135 0051033   8.8456 351.2472  2.00560660 40871
1 40534U 15013A   20301.42507421 -.00000038  00000-0  00000-0 0  9999
2 40534  54.1289 289.4285 0051279   8.9380 351.1530  2.00560485 40964
1 40534U 15013A   20303.41940910 -.00000045  00000-0  00000-0 0  9992
2 40534  54.1279 289.3462 0051319   8.9901 351.0945  2.00560352 40572
1 40534U 15013A   20303.41940910 -.00000045  00000-0  00000-0 0  9992
2 40534  54.1279 289.3462 0051319   8.9901 351.0945  2.00560352 41001
